NAVSTAR 77 (USA 289)    
1 43873U 18109A   24174.82816531  .00000022  00000+0  00000+0 0  9998
2 43873  55.2996 120.8059 0029182 195.1255 347.2063  2.00556226 40544
